[{"OBJECT_NAME":"ONEWEB-0412","OBJECT_ID":"2021-132W","EPOCH":"2026-03-09T16:56:58.609824","MEAN_MOTION":13.18686027,"ECCENTRICITY":0.00015108,"INCLINATION":87.9252,"RA_OF_ASC_NODE":355.2165,"ARG_OF_PERICENTER":84.9612,"MEAN_ANOMALY":275.1692,"EPHEMERIS_TYPE":0,"CLASSIFICATION_TYPE":"U","NORAD_CAT_ID":50489,"ELEMENT_SET_NO":999,"REV_AT_EPOCH":20854,"BSTAR":-0.00020982512,"MEAN_MOTION_DOT":-7.0e-7,"MEAN_MOTION_DDOT":0},{"OBJECT_NAME":"UNKNOWN","OBJECT_ID":"","EPOCH":"2026-03-04T23:05:58.793856","MEAN_MOTION":14.04989219,"ECCENTRICITY":0.0516129,"INCLINATION":65.7446,"RA_OF_ASC_NODE":268.6872,"ARG_OF_PERICENTER":256.6593,"MEAN_ANOMALY":97.6465,"EPHEMERIS_TYPE":0,"CLASSIFICATION_TYPE":"U","NORAD_CAT_ID":81995,"ELEMENT_SET_NO":999,"REV_AT_EPOCH":61577,"BSTAR":0.00096399,"MEAN_MOTION_DOT":5.163e-5,"MEAN_MOTION_DDOT":0}]
